{
  "type": "FeatureCollection",
  "features": [
    {
      "type": "Feature",
      "properties": {
        "norad_id": 33791,
        "name": "COSMOS 2251 DEB",
        "group": "cosmos-2251-debris",
        "lat": 59.12279794906985,
        "lon": -154.29746800275507,
        "alt_km": 757.9847761729334,
        "timestamp": "2025-12-03T19:33:07.369794+00:00",
        "meta_object_name": "COSMOS 2251 DEB",
        "meta_object_id": "1993-036AG",
        "meta_epoch": "2025-12-03T07:41:18.683232",
        "meta_mean_motion": 14.4304624,
        "meta_eccentricity": 0.00306,
        "meta_inclination": 74.176,
        "meta_ra_of_asc_node": 54.9262,
        "meta_arg_of_pericenter": 253.6826,
        "meta_mean_anomaly": 176.4792,
        "meta_ephemeris_type": 0,
        "meta_classification_type": "U",
        "meta_norad_cat_id": 33791,
        "meta_element_set_no": 999,
        "meta_rev_at_epoch": 87916,
        "meta_bstar": 0.00096945,
        "meta_mean_motion_dot": 3.243e-05,
        "meta_mean_motion_ddot": 0,
        "tle_line1": "1 33791U 93036AG  25337.32035513  .00003243  00000+0  96945-3 0  9993",
        "tle_line2": "2 33791  74.1760  54.9262 0030600 253.6826 176.4792 14.43046240879164"
      },
      "geometry": {
        "type": "Point",
        "coordinates": [
          -154.29746800275507,
          59.12279794906985
        ]
      }
    },
    {
      "type": "Feature",
      "properties": {
        "norad_id": 33792,
        "name": "COSMOS 2251 DEB",
        "group": "cosmos-2251-debris",
        "lat": 44.20673550478965,
        "lon": 15.910897534296266,
        "alt_km": 781.3897139484043,
        "timestamp": "2025-12-03T19:33:07.369812+00:00",
        "meta_object_name": "COSMOS 2251 DEB",
        "meta_object_id": "1993-036AH",
        "meta_epoch": "2025-12-03T12:44:04.481952",
        "meta_mean_motion": 13.45802489,
        "meta_eccentricity": 0.0426816,
        "meta_inclination": 73.9011,
        "meta_ra_of_asc_node": 0.0505,
        "meta_arg_of_pericenter": 66.4261,
        "meta_mean_anomaly": 46.0061,
        "meta_ephemeris_type": 0,
        "meta_classification_type": "U",
        "meta_norad_cat_id": 33792,
        "meta_element_set_no": 999,
        "meta_rev_at_epoch": 82318,
        "meta_bstar": 0.00085013,
        "meta_mean_motion_dot": 8.61e-06,
        "meta_mean_motion_ddot": 0,
        "tle_line1": "1 33792U 93036AH  25337.53060743  .00000861  00000+0  85013-3 0  9997",
        "tle_line2": "2 33792  73.9011   0.0505 0426816  66.4261  46.0061 13.45802489823182"
      },
      "geometry": {
        "type": "Point",
        "coordinates": [
          15.910897534296266,
          44.20673550478965
        ]
      }
    },
    {
      "type": "Feature",
      "properties": {
        "norad_id": 33793,
        "name": "COSMOS 2251 DEB",
        "group": "cosmos-2251-debris",
        "lat": 42.96710028572143,
        "lon": -29.38439874383122,
        "alt_km": 851.6201523238178,
        "timestamp": "2025-12-03T19:33:07.369836+00:00",
        "meta_object_name": "COSMOS 2251 DEB",
        "meta_object_id": "1993-036AJ",
        "meta_epoch": "2025-12-03T12:19:44.111136",
        "meta_mean_motion": 14.27673812,
        "meta_eccentricity": 0.0078177,
        "meta_inclination": 73.9798,
        "meta_ra_of_asc_node": 166.6847,
        "meta_arg_of_pericenter": 318.5938,
        "meta_mean_anomaly": 69.8882,
        "meta_ephemeris_type": 0,
        "meta_classification_type": "U",
        "meta_norad_cat_id": 33793,
        "meta_element_set_no": 999,
        "meta_rev_at_epoch": 87075,
        "meta_bstar": 0.00085842,
        "meta_mean_motion_dot": 2.16e-05,
        "meta_mean_motion_ddot": 0,
        "tle_line1": "1 33793U 93036AJ  25337.51370499  .00002160  00000+0  85842-3 0  9992",
        "tle_line2": "2 33793  73.9798 166.6847 0078177 318.5938  69.8882 14.27673812870754"
      },
      "geometry": {
        "type": "Point",
        "coordinates": [
          -29.38439874383122,
          42.96710028572143
        ]
      }
    },
    {
      "type": "Feature",
      "properties": {
        "norad_id": 33795,
        "name": "COSMOS 2251 DEB",
        "group": "cosmos-2251-debris",
        "lat": 63.465036822712385,
        "lon": -119.96102634194604,
        "alt_km": 537.1590262712643,
        "timestamp": "2025-12-03T19:33:07.369862+00:00",
        "meta_object_name": "COSMOS 2251 DEB",
        "meta_object_id": "1993-036AL",
        "meta_epoch": "2025-12-03T09:45:37.190016",
        "meta_mean_motion": 15.04897442,
        "meta_eccentricity": 0.0033236,
        "meta_inclination": 74.0317,
        "meta_ra_of_asc_node": 95.8648,
        "meta_arg_of_pericenter": 182.0951,
        "meta_mean_anomaly": 240.2895,
        "meta_ephemeris_type": 0,
        "meta_classification_type": "U",
        "meta_norad_cat_id": 33795,
        "meta_element_set_no": 999,
        "meta_rev_at_epoch": 89881,
        "meta_bstar": 0.0021256,
        "meta_mean_motion_dot": 0.00030549,
        "meta_mean_motion_ddot": 0,
        "tle_line1": "1 33795U 93036AL  25337.40668044  .00030549  00000+0  21256-2 0  9998",
        "tle_line2": "2 33795  74.0317  95.8648 0033236 182.0951 240.2895 15.04897442898812"
      },
      "geometry": {
        "type": "Point",
        "coordinates": [
          -119.96102634194604,
          63.465036822712385
        ]
      }
    },
    {
      "type": "Feature",
      "properties": {
        "norad_id": 33797,
        "name": "COSMOS 2251 DEB",
        "group": "cosmos-2251-debris",
        "lat": 12.56456842076869,
        "lon": 55.57592124926651,
        "alt_km": 728.4546378651439,
        "timestamp": "2025-12-03T19:33:07.369877+00:00",
        "meta_object_name": "COSMOS 2251 DEB",
        "meta_object_id": "1993-036AN",
        "meta_epoch": "2025-12-03T11:18:45.371808",
        "meta_mean_motion": 14.57782149,
        "meta_eccentricity": 0.0061192,
        "meta_inclination": 74.0487,
        "meta_ra_of_asc_node": 52.5731,
        "meta_arg_of_pericenter": 143.1845,
        "meta_mean_anomaly": 229.5892,
        "meta_ephemeris_type": 0,
        "meta_classification_type": "U",
        "meta_norad_cat_id": 33797,
        "meta_element_set_no": 999,
        "meta_rev_at_epoch": 88850,
        "meta_bstar": 0.00076512,
        "meta_mean_motion_dot": 3.562e-05,
        "meta_mean_motion_ddot": 0,
        "tle_line1": "1 33797U 93036AN  25337.47135847  .00003562  00000+0  76512-3 0  9998",
        "tle_line2": "2 33797  74.0487  52.5731 0061192 143.1845 229.5892 14.57782149888503"
      },
      "geometry": {
        "type": "Point",
        "coordinates": [
          55.57592124926651,
          12.56456842076869
        ]
      }
    },
    {
      "type": "Feature",
      "properties": {
        "norad_id": 33798,
        "name": "COSMOS 2251 DEB",
        "group": "cosmos-2251-debris",
        "lat": -40.19231071898702,
        "lon": 138.52668196518385,
        "alt_km": 700.3779123617942,
        "timestamp": "2025-12-03T19:33:07.369887+00:00",
        "meta_object_name": "COSMOS 2251 DEB",
        "meta_object_id": "1993-036AP",
        "meta_epoch": "2025-12-03T05:37:08.660928",
        "meta_mean_motion": 14.44595821,
        "meta_eccentricity": 0.0092486,
        "meta_inclination": 74.0276,
        "meta_ra_of_asc_node": 153.6105,
        "meta_arg_of_pericenter": 277.0325,
        "meta_mean_anomaly": 262.2793,
        "meta_ephemeris_type": 0,
        "meta_classification_type": "U",
        "meta_norad_cat_id": 33798,
        "meta_element_set_no": 999,
        "meta_rev_at_epoch": 88456,
        "meta_bstar": 0.00022995,
        "meta_mean_motion_dot": 8.09e-06,
        "meta_mean_motion_ddot": 0,
        "tle_line1": "1 33798U 93036AP  25337.23412802  .00000809  00000+0  22995-3 0  9999",
        "tle_line2": "2 33798  74.0276 153.6105 0092486 277.0325 262.2793 14.44595821884569"
      },
      "geometry": {
        "type": "Point",
        "coordinates": [
          138.52668196518385,
          -40.19231071898702
        ]
      }
    },
    {
      "type": "Feature",
      "properties": {
        "norad_id": 33799,
        "name": "COSMOS 2251 DEB",
        "group": "cosmos-2251-debris",
        "lat": 17.421746422842183,
        "lon": -85.79819298983695,
        "alt_km": 614.6921766245487,
        "timestamp": "2025-12-03T19:33:07.369898+00:00",
        "meta_object_name": "COSMOS 2251 DEB",
        "meta_object_id": "1993-036AQ",
        "meta_epoch": "2025-12-03T11:00:20.015136",
        "meta_mean_motion": 14.79316434,
        "meta_eccentricity": 0.0024521,
        "meta_inclination": 74.0314,
        "meta_ra_of_asc_node": 100.0576,
        "meta_arg_of_pericenter": 173.1929,
        "meta_mean_anomaly": 252.9463,
        "meta_ephemeris_type": 0,
        "meta_classification_type": "U",
        "meta_norad_cat_id": 33799,
        "meta_element_set_no": 999,
        "meta_rev_at_epoch": 88674,
        "meta_bstar": 0.0023329,
        "meta_mean_motion_dot": 0.00017466,
        "meta_mean_motion_ddot": 0,
        "tle_line1": "1 33799U 93036AQ  25337.45856499  .00017466  00000+0  23329-2 0  9996",
        "tle_line2": "2 33799  74.0314 100.0576 0024521 173.1929 252.9463 14.79316434886743"
      },
      "geometry": {
        "type": "Point",
        "coordinates": [
          -85.79819298983695,
          17.421746422842183
        ]
      }
    }
  ]
}